GUOWANG OBJECT C        
1 69574U 26137C   26182.74324374 -.00000097  00000+0  39805-4 0  9998
2 69574  49.9950 197.3856 0011931 274.2707  85.6828 13.89816036  2051
GUOWANG OBJECT D        
1 69575U 26137D   26182.74218384 -.00000097  00000+0  39493-4 0  9995
2 69575  49.9956 197.3786 0011142 273.0561  86.9063 13.89829036  2058
GUOWANG OBJECT E        
1 69576U 26137E   26182.74118723 -.00000105  00000+0  33345-4 0  9992
2 69576  50.0014 197.3927 0011251 276.1132  83.8484 13.89826654  2059
GUOWANG OBJECT F        
1 69577U 26137F   26182.74027064 -.00000100  00000+0  37160-4 0  9994
2 69577  49.9996 197.3860 0010847 275.6217  84.3445 13.89810970  2057
GUOWANG OBJECT G        
1 69578U 26137G   26182.73931870 -.00000094  00000+0  41595-4 0  9992
2 69578  49.9957 197.3640 0010835 275.3981  84.5681 13.89796312  2050
GUOWANG OBJECT H        
1 69579U 26137H   26176.48489301  .00000037  00000+0  14270-3 0  9990
2 69579  49.9967 222.2731 0010122 259.8752 100.1006 13.92076941  1185
GUOWANG OBJECT J        
1 69580U 26137J   26178.27848690  .00000022  00000+0  13174-3 0  9997
2 69580  49.9961 215.0979 0011832 257.3150 102.6427 13.91997107  1436
CENTISPACE-1 GROUP 05 O*
1 69582U 26138A   26182.83006715 -.00000385  00000+0 -11777-3 0  9992
2 69582  55.1401 227.0966 0010404 313.3343  46.6763 14.15473735  2092
CENTISPACE-1 GROUP 05 O*
1 69583U 26138B   26182.82817779 -.00000405  00000+0 -12753-3 0  9990
2 69583  55.1400 227.0849 0009377 313.2730  46.7461 14.15654814  2093
CENTISPACE-1 GROUP 05 O*
1 69584U 26138C   26182.82729137 -.00000393  00000+0 -12156-3 0  9994
2 69584  55.1403 227.0886 0009302 315.0767  44.9454 14.15738869  2091
CENTISPACE-1 GROUP 05 O*
1 69585U 26138D   26182.82556145 -.00000443  00000+0 -14617-3 0  9992
2 69585  55.1406 227.0703 0008864 313.9120  46.1122 14.15925946  2095
CENTISPACE-1 GROUP 05 O*
1 69586U 26138E   26182.82487985 -.00000406  00000+0 -12754-3 0  9997
2 69586  55.1402 227.0738 0008596 314.2088  45.8179 14.15992520  2099
CENTISPACE-1 GROUP 05 O*
1 69587U 26138F   26182.82549856 -.00000418  00000+0 -13369-3 0  9990
2 69587  55.1406 227.0785 0008467 318.7361  41.2973 14.15915649  2095
CENTISPACE-1 GROUP 05 O*
1 69588U 26138G   26182.82377620 -.00000405  00000+0 -12639-3 0  9994
2 69588  55.1404 227.0665 0007748 318.2341  41.8042 14.16080294  2098
SPACEMOBILE-008         
1 69589U 26139A   26182.47721379  .00000191  00000+0  27748-4 0  9999
2 69589  52.9935 197.6887 0004305  22.4163 337.7016 15.12786072  2141
SPACEMOBILE-009         
1 69590U 26139B   26182.74249138  .00000137  00000+0  24713-4 0  9998
2 69590  52.9926 196.4914 0004531  17.6990 342.4158 15.12679667  2181
SPACEMOBILE-010         
1 69591U 26139C   26182.74410197  .00000135  00000+0  24714-4 0  9993
2 69591  52.9931 196.5036 0004393   8.2015 351.9047 15.12510830  2193
KUIPER-00423            
1 69592U 26140A   26182.80122087  .00041880  00000+0  10932-2 0  9998
2 69592  51.8817 327.9150 0013674 218.3916 141.6099 15.38302800  3486
KUIPER-00428            
1 69593U 26140B   26182.82559016  .00053672  00000+0  14823-2 0  9992
2 69593  51.8783 328.0697 0005325 350.0240  10.0639 15.36524036  3489
KUIPER-00481            
1 69594U 26140C   26182.80701231  .00047024  00000+0  12478-2 0  9997
2 69594  51.8811 327.9514 0020399 276.7191  83.1474 15.37628092  3481
KUIPER-00490            
1 69595U 26140D   26182.81650503  .00037116  00000+0  99488-3 0  9992
2 69595  51.8786 328.0082 0005297 294.8349  65.2086 15.37620009  3481
KUIPER-00493            
1 69596U 26140E   26182.82831159  .00041277  00000+0  11490-2 0  9991
2 69596  51.8806 328.0921 0007047 352.3867   7.7011 15.36386989  3481
KUIPER-00496            
1 69597U 26140F   26182.83441732  .00027393  00000+0  80235-3 0  9994
2 69597  51.8793 328.1263 0009283   2.8165 357.2872 15.34980677  3489
KUIPER-00513            
1 69598U 26140G   26182.81497095  .00037210  00000+0  99063-3 0  9994
2 69598  51.8815 328.0046 0006293 287.4717  72.5582 15.37823740  3480
KUIPER-00516            
1 69599U 26140H   26182.88346100  .00046436  00000+0  12519-2 0  9992
2 69599  51.8795 327.7083 0006262 304.1254  55.9138 15.37333366  3497
KUIPER-00517            
1 69600U 26140J   26182.80581686  .00044472  00000+0  11549-2 0  9997
2 69600  51.8772 327.9405 0011112 245.1562 114.8270 15.38466014  3480
KUIPER-00520            
1 69601U 26140K   26182.81973704  .00034196  00000+0  92654-3 0  9994
2 69601  51.8827 328.0374 0005807 303.7395  56.3038 15.37322540  3484
KUIPER-00522            
1 69602U 26140L   26182.80085252  .00043549  00000+0  11345-2 0  9995
2 69602  51.8790 327.9111 0013754 214.7408 145.2682 15.38346294  3483
KUIPER-00528            
1 69603U 26140M   26182.82111898  .00041995  00000+0  11397-2 0  9994
2 69603  51.8801 328.0412 0004931 310.0172  50.0381 15.37180610  3484
