OBJECT_NAME,OBJECT_ID,EPOCH,MEAN_MOTION,ECCENTRICITY,INCLINATION,RA_OF_ASC_NODE,ARG_OF_PERICENTER,MEAN_ANOMALY,EPHEMERIS_TYPE,CLASSIFICATION_TYPE,NORAD_CAT_ID,ELEMENT_SET_NO,REV_AT_EPOCH,BSTAR,MEAN_MOTION_DOT,MEAN_MOTION_DDOT
GUOWANG OBJECT C,2026-137C,2026-07-01T17:50:16.259136,13.89816036,.00119312,49.9950,197.3856,274.2707,85.6828,0,U,69574,999,205,.39805369E-4,-.97E-6,0
GUOWANG OBJECT D,2026-137D,2026-07-01T17:48:44.683776,13.89829036,.00111422,49.9956,197.3786,273.0561,86.9063,0,U,69575,999,205,.39493409E-4,-.97E-6,0
GUOWANG OBJECT E,2026-137E,2026-07-01T17:47:18.576672,13.89826654,.00112514,50.0014,197.3927,276.1132,83.8484,0,U,69576,999,205,.33345321E-4,-.105E-5,0
GUOWANG OBJECT F,2026-137F,2026-07-01T17:45:59.383296,13.89810970,.00108471,49.9996,197.3860,275.6217,84.3445,0,U,69577,999,205,.37159636E-4,-.1E-5,0
GUOWANG OBJECT G,2026-137G,2026-07-01T17:44:37.135680,13.89796312,.00108359,49.9957,197.3640,275.3981,84.5681,0,U,69578,999,205,.41595177E-4,-.94E-6,0
GUOWANG OBJECT H,2026-137H,2026-06-25T11:38:14.756064,13.92076941,.0010122,49.9967,222.2731,259.8752,100.1006,0,U,69579,999,118,.1427E-3,.37E-6,0
GUOWANG OBJECT J,2026-137J,2026-06-27T06:41:01.268160,13.91997107,.0011832,49.9961,215.0979,257.3150,102.6427,0,U,69580,999,143,.13174E-3,.22E-6,0
CENTISPACE-1 GROUP 05 OBJECT A,2026-138A,2026-07-01T19:55:17.801760,14.15473735,.00104041,55.1401,227.0966,313.3343,46.6763,0,U,69582,999,209,-.11776747E-3,-.385E-5,0
CENTISPACE-1 GROUP 05 OBJECT B,2026-138B,2026-07-01T19:52:34.561056,14.15654814,.00093776,55.1400,227.0849,313.2730,46.7461,0,U,69583,999,209,-.12752738E-3,-.405E-5,0
CENTISPACE-1 GROUP 05 OBJECT C,2026-138C,2026-07-01T19:51:17.974368,14.15738869,.00093027,55.1403,227.0886,315.0767,44.9454,0,U,69584,999,209,-.12155521E-3,-.393E-5,0
CENTISPACE-1 GROUP 05 OBJECT D,2026-138D,2026-07-01T19:48:48.509280,14.15925946,.00088645,55.1406,227.0703,313.9120,46.1122,0,U,69585,999,209,-.14617003E-3,-.443E-5,0
CENTISPACE-1 GROUP 05 OBJECT E,2026-138E,2026-07-01T19:47:49.619040,14.15992520,.00085962,55.1402,227.0738,314.2088,45.8179,0,U,69586,999,209,-.12753846E-3,-.406E-5,0
CENTISPACE-1 GROUP 05 OBJECT F,2026-138F,2026-07-01T19:48:43.075584,14.15915649,.00084677,55.1406,227.0785,318.7361,41.2973,0,U,69587,999,209,-.13368999E-3,-.418E-5,0
CENTISPACE-1 GROUP 05 OBJECT G,2026-138G,2026-07-01T19:46:14.263680,14.16080294,.00077485,55.1404,227.0665,318.2341,41.8042,0,U,69588,999,209,-.12638808E-3,-.405E-5,0
SPACEMOBILE-008,2026-139A,2026-07-01T11:27:11.271456,15.12786072,.00043057,52.9935,197.6887,22.4163,337.7016,0,U,69589,999,214,.27747996E-4,.191E-5,0
SPACEMOBILE-009,2026-139B,2026-07-01T17:49:11.255232,15.12679667,.00045316,52.9926,196.4914,17.6990,342.4158,0,U,69590,999,218,.2471311E-4,.137E-5,0
SPACEMOBILE-010,2026-139C,2026-07-01T17:51:30.410208,15.12510830,.00043933,52.9931,196.5036,8.2015,351.9047,0,U,69591,999,219,.24714223E-4,.135E-5,0
KUIPER-00423,2026-140A,2026-07-01T19:13:45.483168,15.38302800,.00136741,51.8817,327.9150,218.3916,141.6099,0,U,69592,999,348,.10932225E-2,.4188E-3,0
KUIPER-00428,2026-140B,2026-07-01T19:48:50.989824,15.36524036,.00053257,51.8783,328.0697,350.0240,10.0639,0,U,69593,999,348,.14823472E-2,.53672E-3,0
KUIPER-00481,2026-140C,2026-07-01T19:22:05.863584,15.37628092,.00203996,51.8811,327.9514,276.7191,83.1474,0,U,69594,999,348,.12478255E-2,.47024E-3,0
KUIPER-00490,2026-140D,2026-07-01T19:35:46.034592,15.37620009,.00052975,51.8786,328.0082,294.8349,65.2086,0,U,69595,999,348,.99487542E-3,.37116E-3,0
KUIPER-00493,2026-140E,2026-07-01T19:52:46.121376,15.36386989,.00070475,51.8806,328.0921,352.3867,7.7011,0,U,69596,999,348,.11490188E-2,.41277E-3,0
KUIPER-00496,2026-140F,2026-07-01T20:01:33.656448,15.34980677,.00092839,51.8793,328.1263,2.8165,357.2872,0,U,69597,999,348,.8023494E-3,.27393E-3,0
KUIPER-00513,2026-140G,2026-07-01T19:33:33.490080,15.37823740,.00062933,51.8815,328.0046,287.4717,72.5582,0,U,69598,999,348,.99063466E-3,.3721E-3,0
KUIPER-00516,2026-140H,2026-07-01T21:12:11.030400,15.37333366,.00062624,51.8795,327.7083,304.1254,55.9138,0,U,69599,999,349,.12518905E-2,.46436E-3,0
KUIPER-00517,2026-140J,2026-07-01T19:20:22.576704,15.38466014,.00111125,51.8772,327.9405,245.1562,114.8270,0,U,69600,999,348,.11548787E-2,.44472E-3,0
KUIPER-00520,2026-140K,2026-07-01T19:40:25.280256,15.37322540,.00058075,51.8827,328.0374,303.7395,56.3038,0,U,69601,999,348,.92654342E-3,.34196E-3,0
KUIPER-00522,2026-140L,2026-07-01T19:13:13.657728,15.38346294,.0013754,51.8790,327.9111,214.7408,145.2682,0,U,69602,999,348,.11344727E-2,.43549E-3,0
KUIPER-00528,2026-140M,2026-07-01T19:42:24.679872,15.37180610,.00049311,51.8801,328.0412,310.0172,50.0381,0,U,69603,999,348,.11396709E-2,.41995E-3,0
